{"type": "FeatureCollection", "features": [ {"type": "Feature", "properties": {"norad_id": 36990, "name": "FENGYUN 1C DEB", "group": "fengyun-1c-debris", "lat": -1.447201304059191, "lon": -62.42253233932699, "alt_km": 840.1956291533461, "timestamp": "2025-12-15T22:44:29.216953+00:00", "meta": {"OBJECT_NAME": "FENGYUN 1C DEB", "OBJECT_ID": "1999-025EBW", "EPOCH": "2025-12-05T02:36:38.289600", "MEAN_MOTION": 13.56914719, "ECCENTRICITY": 0.0292772, "INCLINATION": 96.5839, "RA_OF_ASC_NODE": 290.134, "ARG_OF_PERICENTER": 44.0413, "MEAN_ANOMALY": 318.3658, "EPHEMERIS_TYPE": 0, "CLASSIFICATION_TYPE": "U", "NORAD_CAT_ID": 36990, "ELEMENT_SET_NO": 999, "REV_AT_EPOCH": 82784, "BSTAR": 0.0013157618, "MEAN_MOTION_DOT": 1.212e-05, "MEAN_MOTION_DDOT": 0}, "tle": {"line1": "1 36990U 99025EBW 25339.10877650  .00001212  00000+0  13158-2 0  9993", "line2": "2 36990  96.5839 290.1340 0292772  44.0413 318.3658 13.56914719827842"}}, "geometry": {"type": "Point", "coordinates": [-62.42253233932699, -1.447201304059191]}}, {"type": "Feature", "properties": {"norad_id": 36994, "name": "FENGYUN 1C DEB", "group": "fengyun-1c-debris", "lat": -9.904265005790391, "lon": 130.4558592934623, "alt_km": 935.4032496251193, "timestamp": "2025-12-15T22:44:29.216963+00:00", "meta": {"OBJECT_NAME": "FENGYUN 1C DEB", "OBJECT_ID": "1999-025ECA", "EPOCH": "2025-12-14T14:44:25.273824", "MEAN_MOTION": 13.90787475, "ECCENTRICITY": 0.011458, "INCLINATION": 98.6431, "RA_OF_ASC_NODE": 310.7368, "ARG_OF_PERICENTER": 287.9623, "MEAN_ANOMALY": 70.9075, "EPHEMERIS_TYPE": 0, "CLASSIFICATION_TYPE": "U", "NORAD_CAT_ID": 36994, "ELEMENT_SET_NO": 999, "REV_AT_EPOCH": 80933, "BSTAR": 0.00022594901, "MEAN_MOTION_DOT": 2.57e-06, "MEAN_MOTION_DDOT": 0}, "tle": {"line1": "1 36994U 99025ECA 25348.61418141  .00000257  00000+0  22595-3 0  9993", "line2": "2 36994  98.6431 310.7368 0114580 287.9623  70.9075 13.90787475809330"}}, "geometry": {"type": "Point", "coordinates": [130.4558592934623, -9.904265005790391]}}, {"type": "Feature", "properties": {"norad_id": 36995, "name": "FENGYUN 1C DEB", "group": "fengyun-1c-debris", "lat": -75.13711897835506, "lon": 14.827455636837986, "alt_km": 864.2673045133288, "timestamp": "2025-12-15T22:44:29.216975+00:00", "meta": {"OBJECT_NAME": "FENGYUN 1C DEB", "OBJECT_ID": "1999-025ECB", "EPOCH": "2025-12-13T09:41:23.797824", "MEAN_MOTION": 14.04866862, "ECCENTRICITY": 0.00385614, "INCLINATION": 98.3431, "RA_OF_ASC_NODE": 226.0575, "ARG_OF_PERICENTER": 309.2932, "MEAN_ANOMALY": 50.4819, "EPHEMERIS_TYPE": 0, "CLASSIFICATION_TYPE": "U", "NORAD_CAT_ID": 36995, "ELEMENT_SET_NO": 999, "REV_AT_EPOCH": 63566, "BSTAR": 5.457857e-05, "MEAN_MOTION_DOT": 4.9e-07, "MEAN_MOTION_DDOT": 0}, "tle": {"line1": "1 36995U 99025ECB 25347.40374766  .00000049  00000+0  54579-4 0  9991", "line2": "2 36995  98.3431 226.0575 0038561 309.2932  50.4819 14.04866862635668"}}, "geometry": {"type": "Point", "coordinates": [14.827455636837986, -75.13711897835506]}}, {"type": "Feature", "properties": {"norad_id": 36996, "name": "FENGYUN 1C DEB", "group": "fengyun-1c-debris", "lat": 81.06284168672683, "lon": 75.04597249226693, "alt_km": 894.7783774620302, "timestamp": "2025-12-15T22:44:29.216985+00:00", "meta": {"OBJECT_NAME": "FENGYUN 1C DEB", "OBJECT_ID": "1999-025ECC", "EPOCH": "2025-12-11T16:18:59.778720", "MEAN_MOTION": 14.11531157, "ECCENTRICITY": 0.02544583, "INCLINATION": 98.2241, "RA_OF_ASC_NODE": 138.0024, "ARG_OF_PERICENTER": 352.2337, "MEAN_ANOMALY": 17.2038, "EPHEMERIS_TYPE": 0, "CLASSIFICATION_TYPE": "U", "NORAD_CAT_ID": 36996, "ELEMENT_SET_NO": 999, "REV_AT_EPOCH": 59677, "BSTAR": 0.0011778893, "MEAN_MOTION_DOT": 2.857e-05, "MEAN_MOTION_DDOT": 0}, "tle": {"line1": "1 36996U 99025ECC 25345.67985855  .00002857  00000+0  11779-2 0  9998", "line2": "2 36996  98.2241 138.0024 0254458 352.2337  17.2038 14.11531157596776"}}, "geometry": {"type": "Point", "coordinates": [75.04597249226693, 81.06284168672683]}}, {"type": "Feature", "properties": {"norad_id": 37003, "name": "FENGYUN 1C DEB", "group": "fengyun-1c-debris", "lat": -40.508494466880165, "lon": 21.092211764275394, "alt_km": 981.5750124901542, "timestamp": "2025-12-15T22:44:29.217013+00:00", "meta": {"OBJECT_NAME": "FENGYUN 1C DEB", "OBJECT_ID": "1999-025ECK", "EPOCH": "2025-12-14T20:16:45.802848", "MEAN_MOTION": 13.96226595, "ECCENTRICITY": 0.00968098, "INCLINATION": 98.8469, "RA_OF_ASC_NODE": 12.3863, "ARG_OF_PERICENTER": 156.6053, "MEAN_ANOMALY": 23.0881, "EPHEMERIS_TYPE": 0, "CLASSIFICATION_TYPE": "U", "NORAD_CAT_ID": 37003, "ELEMENT_SET_NO": 999, "REV_AT_EPOCH": 60686, "BSTAR": 0.00062756069, "MEAN_MOTION_DOT": 8.56e-06, "MEAN_MOTION_DDOT": 0}, "tle": {"line1": "1 37003U 99025ECK 25348.84497457  .00000856  00000+0  62756-3 0  9995", "line2": "2 37003  98.8469  12.3863 0096809 156.6053  23.0881 13.96226595606866"}}, "geometry": {"type": "Point", "coordinates": [21.092211764275394, -40.508494466880165]}}, {"type": "Feature", "properties": {"norad_id": 37006, "name": "FENGYUN 1C DEB", "group": "fengyun-1c-debris", "lat": 14.485243132222891, "lon": 61.26517054022803, "alt_km": 673.8962122163512, "timestamp": "2025-12-15T22:44:29.217026+00:00", "meta": {"OBJECT_NAME": "FENGYUN 1C DEB", "OBJECT_ID": "1999-025ECN", "EPOCH": "2025-12-13T23:33:02.281824", "MEAN_MOTION": 14.48911917, "ECCENTRICITY": 0.02552652, "INCLINATION": 99.2982, "RA_OF_ASC_NODE": 236.6727, "ARG_OF_PERICENTER": 244.4177, "MEAN_ANOMALY": 113.0432, "EPHEMERIS_TYPE": 0, "CLASSIFICATION_TYPE": "U", "NORAD_CAT_ID": 37006, "ELEMENT_SET_NO": 999, "REV_AT_EPOCH": 65132, "BSTAR": 0.00085332539, "MEAN_MOTION_DOT": 4.828e-05, "MEAN_MOTION_DDOT": 0}, "tle": {"line1": "1 37006U 99025ECN 25347.98127641  .00004828  00000+0  85333-3 0  9996", "line2": "2 37006  99.2982 236.6727 0255265 244.4177 113.0432 14.48911917651320"}}, "geometry": {"type": "Point", "coordinates": [61.26517054022803, 14.485243132222891]}}, {"type": "Feature", "properties": {"norad_id": 37008, "name": "FENGYUN 1C DEB", "group": "fengyun-1c-debris", "lat": 78.55251971032283, "lon": -18.5494783278556, "alt_km": 897.0849956103975, "timestamp": "2025-12-15T22:44:29.217038+00:00", "meta": {"OBJECT_NAME": "FENGYUN 1C DEB", "OBJECT_ID": "1999-025ECQ", "EPOCH": "2025-12-15T03:31:00.795936", "MEAN_MOTION": 14.07941468, "ECCENTRICITY": 0.00621681, "INCLINATION": 99.1347, "RA_OF_ASC_NODE": 108.0267, "ARG_OF_PERICENTER": 246.9311, "MEAN_ANOMALY": 112.5295, "EPHEMERIS_TYPE": 0, "CLASSIFICATION_TYPE": "U", "NORAD_CAT_ID": 37008, "ELEMENT_SET_NO": 999, "REV_AT_EPOCH": 60348, "BSTAR": 0.0009693799, "MEAN_MOTION_DOT": 1.63e-05, "MEAN_MOTION_DDOT": 0}, "tle": {"line1": "1 37008U 99025ECQ 25349.14653699  .00001630  00000+0  96938-3 0  9996", "line2": "2 37008  99.1347 108.0267 0062168 246.9311 112.5295 14.07941468603486"}}, "geometry": {"type": "Point", "coordinates": [-18.5494783278556, 78.55251971032283]}}, {"type": "Feature", "properties": {"norad_id": 37017, "name": "FENGYUN 1C DEB", "group": "fengyun-1c-debris", "lat": 78.60587037540843, "lon": -115.62488892538916, "alt_km": 732.513190566633, "timestamp": "2025-12-15T22:44:29.217049+00:00", "meta": {"OBJECT_NAME": "FENGYUN 1C DEB", "OBJECT_ID": "1999-025ECZ", "EPOCH": "2025-12-15T02:22:19.460640", "MEAN_MOTION": 14.4072854, "ECCENTRICITY": 0.02823068, "INCLINATION": 98.7933, "RA_OF_ASC_NODE": 293.6829, "ARG_OF_PERICENTER": 358.2667, "MEAN_ANOMALY": 1.7517, "EPHEMERIS_TYPE": 0, "CLASSIFICATION_TYPE": "U", "NORAD_CAT_ID": 37017, "ELEMENT_SET_NO": 999, "REV_AT_EPOCH": 61195, "BSTAR": 0.0012381282, "MEAN_MOTION_DOT": 6.308e-05, "MEAN_MOTION_DDOT": 0}, "tle": {"line1": "1 37017U 99025ECZ 25349.09883635  .00006308  00000+0  12381-2 0  9991", "line2": "2 37017  98.7933 293.6829 0282306 358.2667   1.7517 14.40728540611954"}}, "geometry": {"type": "Point", "coordinates": [-115.62488892538916, 78.60587037540843]}}, {"type": "Feature", "properties": {"norad_id": 37021, "name": "FENGYUN 1C DEB", "group": "fengyun-1c-debris", "lat": 79.99714337598829, "lon": -50.24259100651177, "alt_km": 892.8023589713048, "timestamp": "2025-12-15T22:44:29.217060+00:00", "meta": {"OBJECT_NAME": "FENGYUN 1C DEB", "OBJECT_ID": "1999-025EDD", "EPOCH": "2025-12-15T07:18:38.609856", "MEAN_MOTION": 14.3228479, "ECCENTRICITY": 0.01757288, "INCLINATION": 98.3864, "RA_OF_ASC_NODE": 5.8953, "ARG_OF_PERICENTER": 244.1147, "MEAN_ANOMALY": 127.9336, "EPHEMERIS_TYPE": 0, "CLASSIFICATION_TYPE": "U", "NORAD_CAT_ID": 37021, "ELEMENT_SET_NO": 999, "REV_AT_EPOCH": 70091, "BSTAR": 0.0005425781, "MEAN_MOTION_DOT": 1.689e-05, "MEAN_MOTION_DDOT": 0}, "tle": {"line1": "1 37021U 99025EDD 25349.30461354  .00001689  00000+0  54258-3 0  9997", "line2": "2 37021  98.3864   5.8953 0175728 244.1147 127.9336 14.32284790700914"}}, "geometry": {"type": "Point", "coordinates": [-50.24259100651177, 79.99714337598829]}}, {"type": "Feature", "properties": {"norad_id": 37028, "name": "FENGYUN 1C DEB", "group": "fengyun-1c-debris", "lat": -16.271110471820275, "lon": -99.44856349821404, "alt_km": 827.1813155796644, "timestamp": "2025-12-15T22:44:29.217070+00:00", "meta": {"OBJECT_NAME": "FENGYUN 1C DEB", "OBJECT_ID": "1999-025EDL", "EPOCH": "2025-12-14T13:03:45.984672", "MEAN_MOTION": 14.22752179, "ECCENTRICITY": 0.0033411, "INCLINATION": 99.2457, "RA_OF_ASC_NODE": 256.3546, "ARG_OF_PERICENTER": 93.2394, "MEAN_ANOMALY": 267.2605, "EPHEMERIS_TYPE": 0, "CLASSIFICATION_TYPE": "U", "NORAD_CAT_ID": 37028, "ELEMENT_SET_NO": 999, "REV_AT_EPOCH": 60501, "BSTAR": 0.0016622383, "MEAN_MOTION_DOT": 3.701e-05, "MEAN_MOTION_DDOT": 0}, "tle": {"line1": "1 37028U 99025EDL 25348.54428223  .00003701  00000+0  16622-2 0  9996", "line2": "2 37028  99.2457 256.3546 0033411  93.2394 267.2605 14.22752179605011"}}, "geometry": {"type": "Point", "coordinates": [-99.44856349821404, -16.271110471820275]}}]}